Satellite: RAX
Catalog number: 37223
Epoch time:      11089.46431449
Element set:    0122
Inclination:      071.9716 deg
RA of node:       212.4675 deg
Eccentricity:    0.0019443
Arg of perigee:   068.5267 deg
Mean anomaly:     291.7923 deg
Mean motion:   14.77296529 rev/day
Decay rate:       6.60e-06 rev/day^2
Epoch rev:           01926
Checksum:              313

Satellite: OOREOS
Catalog number: 37224
Epoch time:      11076.42207246
Element set:    0109
Inclination:      071.9712 deg
RA of node:       241.3960 deg
Eccentricity:    0.0017800
Arg of perigee:   096.5373 deg
Mean anomaly:     263.7815 deg
Mean motion:   14.76929834 rev/day
Decay rate:       8.68e-06 rev/day^2
Epoch rev:           01732
Checksum:              300

Satellite: FAST1
Catalog number: 37227
Epoch time:      11097.46438851
Element set:    0020
Inclination:      071.9724 deg
RA of node:       195.1988 deg
Eccentricity:    0.0015711
Arg of perigee:   049.2746 deg
Mean anomaly:     310.9727 deg
Mean motion:   14.76544822 rev/day
Decay rate:       6.49e-06 rev/day^2
Epoch rev:           00232
Checksum:              306

Satellite: NANOSALD
Catalog number: 37361
Epoch time:      11089.51706244
Element set:    0111
Inclination:      071.9685 deg
RA of node:       211.9413 deg
Eccentricity:    0.0022351
Arg of perigee:   010.5692 deg
Mean anomaly:     349.6865 deg
Mean motion:   14.84084543 rev/day
Decay rate:     9.5440e-04 rev/day^2
Epoch rev:           01038
Checksum:              287

Satellite: FAST2
Catalog number: 37380
Epoch time:      11097.33137147
Element set:    0132
Inclination:      071.9755 deg
RA of node:       195.5127 deg
Eccentricity:    0.0016197
Arg of perigee:   046.7229 deg
Mean anomaly:     313.5218 deg
Mean motion:   14.76312216 rev/day
Decay rate:       2.05e-06 rev/day^2
Epoch rev:           02040
Checksum:              272

/EX
SB KEPS @ AMSAT  $ORB11097.W
Orbital Elements  11097.WEATHER

HR AMSAT ORBITAL ELEMENTS FOR WEATHER SATELLITES
FROM WA5QGD FORT WORTH,TX April 7, 2011
Send Subscribe/unsubscribe to KEPS at http://www.amsat.org/mailman/listinfo/keps
BID: ORB11097.W
TO ALL RADIO AMATEURS BT

Satellite: NOAA-10
Catalog number: 16969
Epoch time:      11096.92385807
Element set:    0457
Inclination:      098.6252 deg
RA of node:       127.6586 deg
Eccentricity:    0.0013157
Arg of perigee:   075.1154 deg
Mean anomaly:     285.1474 deg
Mean motion:   14.27451750 rev/day
Decay rate:      .00000000 rev/day^2
Epoch rev:           27748
Checksum:              312

Satellite: NOAA-11
Catalog number: 19531
Epoch time:      11096.63665410
Element set:    0462
Inclination:      098.7515 deg
RA of node:       185.4532 deg
Eccentricity:    0.0011739
Arg of perigee:   036.1937 deg
Mean anomaly:     324.0033 deg
Mean motion:   14.14910868 rev/day
Decay rate:       2.39e-06 rev/day^2
Epoch rev:           16263
Checksum:              293

Satellite: NOAA-12
Catalog number: 21263
Epoch time:      11096.92386731
Element set:    0971
Inclination:      098.7542 deg
RA of node:       114.8837 deg
Eccentricity:    0.0013120
Arg of perigee:   037.5342 deg
Mean anomaly:     322.6749 deg
Mean motion:   14.25697770 rev/day
Decay rate:       1.56e-06 rev/day^2
Epoch rev:           03425
Checksum:              305

Satellite: MET-3/5
Catalog number: 21655
Epoch time:      11096.87537069
Element set:    0081
Inclination:      082.5528 deg
RA of node:       101.1606 deg
Eccentricity:    0.0013238
Arg of perigee:   341.1692 deg
Mean anomaly:     018.8927 deg
Mean motion:   13.17029530 rev/day
Decay rate:        5.1e-07 rev/day^2
Epoch rev:           94433
Checksum:              292

Satellite: MET-2/21
Catalog number: 22782
Epoch time:      11096.88354641
Element set:    0063
Inclination:      082.5513 deg
RA of node:       019.4474 deg
Eccentricity:    0.0021193
Arg of perigee:   301.7537 deg
Mean anomaly:     058.1561 deg
Mean motion:   13.83657123 rev/day
Decay rate:        1.1e-07 rev/day^2
Epoch rev:           88869
Checksum:              303

Satellite: OKEAN-4
Catalog number: 23317
Epoch time:      11096.98330345
Element set:    0525
Inclination:      082.5368 deg
RA of node:       079.6200 deg
Eccentricity:    0.0022404
Arg of perigee:   358.6030 deg
Mean anomaly:     001.5117 deg
Mean motion:   14.82998233 rev/day
Decay rate:      1.447e-05 rev/day^2
Epoch rev:           88999
Checksum:              309

Satellite: NOAA-14
Catalog number: 23455
Epoch time:      11096.91190111
Element set:    0459
Inclination:      098.8521 deg
RA of node:       180.2517 deg
Eccentricity:    0.0010051
Arg of perigee:   118.6982 deg
Mean anomaly:     241.5202 deg
Mean motion:   14.13812209 rev/day
Decay rate:        5.1e-07 rev/day^2
Epoch rev:           83900
Checksum:              265

Satellite: NOAA-15
Catalog number: 25338
Epoch time:      11096.82195608
Element set:    0770
Inclination:      098.6507 deg
RA of node:       083.9608 deg
Eccentricity:    0.0009829
Arg of perigee:   303.5206 deg
Mean anomaly:     056.5008 deg
Mean motion:   14.24897527 rev/day
Decay rate:       1.36e-06 rev/day^2
Epoch rev:           67056
Checksum:              330

Satellite: RESURS
Catalog number: 25394
Epoch time:      11097.92418255
Element set:     765
Inclination:      098.3016 deg
RA of node:       104.8187 deg
Eccentricity:    0.0002425
Arg of perigee:   074.2143 deg
Mean anomaly:     285.9307 deg
Mean motion:   14.24228239 rev/day
Decay rate:        4.3e-07 rev/day^2
Epoch rev:           66230
Checksum:              290

Satellite: FENGYUN1
Catalog number: 25730
Epoch time:      11096.92659498
Element set:    0301
Inclination:      098.8141 deg
RA of node:       059.7014 deg
Eccentricity:    0.0023183
Arg of perigee:   147.7791 deg
Mean anomaly:     212.4794 deg
Mean motion:   14.08571302 rev/day
Decay rate:      1.211e-05 rev/day^2
Epoch rev:           61303
Checksum:              287

Satellite: OKEAN-0
Catalog number: 25860
Epoch time:      11096.94079695
Element set:    0275
Inclination:      097.8761 deg
RA of node:       065.3781 deg
Eccentricity:    0.0000690
Arg of perigee:   079.8992 deg
Mean anomaly:     280.2292 deg
Mean motion:   14.73744927 rev/day
Decay rate:       6.08e-06 rev/day^2
Epoch rev:           63016
Checksum:              341

Satellite: NOAA-16
Catalog number: 26536
Epoch time:      11096.82218115
Element set:    0252
Inclination:      099.1465 deg
RA of node:       125.8946 deg
Eccentricity:    0.0010026
Arg of perigee:   229.8725 deg
Mean anomaly:     130.1540 deg
Mean motion:   14.12606846 rev/day
Decay rate:       -8.0e-08 rev/day^2
Epoch rev:           54328
Checksum:              291

Satellite: NOAA-17
Catalog number: 27453
Epoch time:      11096.73041618
Element set:    0246
Inclination:      098.3874 deg
RA of node:       139.6953 deg
Eccentricity:    0.0011690
Arg of perigee:   004.0351 deg
Mean anomaly:     356.0928 deg
Mean motion:   14.24254707 rev/day
Decay rate:       2.40e-06 rev/day^2
Epoch rev:           45648
Checksum:              305

Satellite: NOAA-18
Catalog number: 28654
Epoch time:      11096.78731743
Element set:    0727
Inclination:      098.9898 deg
RA of node:       047.7843 deg
Eccentricity:    0.0013739
Arg of perigee:   309.0424 deg
Mean anomaly:     050.9553 deg
Mean motion:   14.11455370 rev/day
Decay rate:       1.99e-06 rev/day^2
Epoch rev:           30285
Checksum:              341

Satellite: NOAA-19
Catalog number: 33591
Epoch time:      11096.76878348
Element set:    0920
Inclination:      098.8224 deg
RA of node:       038.1423 deg
Eccentricity:    0.0013994
Arg of perigee:   174.6544 deg
Mean anomaly:     185.4806 deg
Mean motion:   14.11147067 rev/day
Decay rate:        7.5e-07 rev/day^2
Epoch rev:           11131
Checksum:              315

/EX
SB KEPS @ AMSAT  $ORB11097.M
Orbital Elements  11097.MISC

HR AMSAT ORBITAL ELEMENTS FOR MANNED AND MISCELLANEOUS SATELLITES
FROM WA5QGD FORT WORTH,TX April 7, 2011
Send Subscribe/unsubscribe to KEPS at http://www.amsat.org/mailman/listinfo/keps
BID: ORB11097.M
TO ALL RADIO AMATEURS BT

Satellite: HUBBLE
Catalog number: 20580
Epoch time:      11097.18782763
Element set:     742
Inclination:      028.4681 deg
RA of node:       120.2080 deg
Eccentricity:    0.0003163
Arg of perigee:   099.6331 deg
Mean anomaly:     260.4775 deg
Mean motion:   15.01261249 rev/day
Decay rate:      1.628e-05 rev/day^2
Epoch rev:           94897
Checksum:              298

Satellite: ISS
Catalog number: 25544
Epoch time:      11097.75640206
Element set:     150
Inclination:      051.6442 deg
RA of node:       162.3701 deg
Eccentricity:    0.0002499
Arg of perigee:   086.9408 deg
Mean anomaly:     011.1115 deg
Mean motion:   15.72967989 rev/day
Decay rate:     6.0054e-04 rev/day^2
Epoch rev:           70981
Checksum:              295

Satellite: CO-58
Catalog number: 28895
Epoch time:      11097.61661347
Element set:     842
Inclination:      097.9768 deg
RA of node:       336.6958 deg
Eccentricity:    0.0019018
Arg of perigee:   083.1139 deg
Mean anomaly:     277.2220 deg
Mean motion:   14.60053366 rev/day
Decay rate:       7.78e-06 rev/day^2
Epoch rev:           28994
Checksum:              361

Satellite: FALCON
Catalog number: 30776
Epoch time:      11096.97235591
Element set:    0076
Inclination:      035.4296 deg
RA of node:       059.9176 deg
Eccentricity:    0.0000440
Arg of perigee:   235.8764 deg
Mean anomaly:     124.1922 deg
Mean motion:   15.04341976 rev/day
Decay rate:      4.337e-05 rev/day^2
Epoch rev:           22431
Checksum:              301

